{
  "type": "FeatureCollection",
  "features": [
    {
      "type": "Feature",
      "properties": {
        "norad_id": 66658,
        "name": "2025-274J",
        "group": "last-30-days",
        "lat": -33.09582803310613,
        "lon": 87.06155689867781,
        "alt_km": 593.6281939598548,
        "timestamp": "2025-12-10T21:43:20.863397+00:00",
        "meta_object_name": "2025-274J",
        "meta_object_id": "2025-274J",
        "meta_epoch": "2025-12-10T12:43:25.805856",
        "meta_mean_motion": 14.92602161,
        "meta_eccentricity": 0.00114812,
        "meta_inclination": 97.7383,
        "meta_ra_of_asc_node": 271.7778,
        "meta_arg_of_pericenter": 287.3729,
        "meta_mean_anomaly": 72.6234,
        "meta_ephemeris_type": 0,
        "meta_classification_type": "U",
        "meta_norad_cat_id": 66658,
        "meta_element_set_no": 999,
        "meta_rev_at_epoch": 207,
        "meta_bstar": 0.00045076221,
        "meta_mean_motion_dot": 4.589e-05,
        "meta_mean_motion_ddot": 0,
        "tle_line1": "1 66658U 25274J   25344.53015979  .00004589  00000+0  45076-3 0  9998",
        "tle_line2": "2 66658  97.7383 271.7778 0011481 287.3729  72.6234 14.92602161  2077"
      },
      "geometry": {
        "type": "Point",
        "coordinates": [
          87.06155689867781,
          -33.09582803310613
        ]
      }
    },
    {
      "type": "Feature",
      "properties": {
        "norad_id": 66659,
        "name": "JACK K",
        "group": "last-30-days",
        "lat": -42.445774641072504,
        "lon": 85.0064395190891,
        "alt_km": 592.2587006945178,
        "timestamp": "2025-12-10T21:43:20.863407+00:00",
        "meta_object_name": "JACK K",
        "meta_object_id": "2025-274K",
        "meta_epoch": "2025-12-10T07:51:22.608000",
        "meta_mean_motion": 14.92785796,
        "meta_eccentricity": 0.00122069,
        "meta_inclination": 97.7384,
        "meta_ra_of_asc_node": 271.5826,
        "meta_arg_of_pericenter": 289.5073,
        "meta_mean_anomaly": 70.4827,
        "meta_ephemeris_type": 0,
        "meta_classification_type": "U",
        "meta_norad_cat_id": 66659,
        "meta_element_set_no": 999,
        "meta_rev_at_epoch": 204,
        "meta_bstar": 0.00042579045,
        "meta_mean_motion_dot": 4.352e-05,
        "meta_mean_motion_ddot": 0,
        "tle_line1": "1 66659U 25274K   25344.32734500  .00004352  00000+0  42579-3 0  9997",
        "tle_line2": "2 66659  97.7384 271.5826 0012206 289.5073  70.4827 14.92785796  2040"
      },
      "geometry": {
        "type": "Point",
        "coordinates": [
          85.0064395190891,
          -42.445774641072504
        ]
      }
    },
    {
      "type": "Feature",
      "properties": {
        "norad_id": 66660,
        "name": "K-HERO",
        "group": "last-30-days",
        "lat": -49.95688942515664,
        "lon": 82.84210814373654,
        "alt_km": 590.8678374485353,
        "timestamp": "2025-12-10T21:43:20.863420+00:00",
        "meta_object_name": "K-HERO",
        "meta_object_id": "2025-274L",
        "meta_epoch": "2025-12-10T06:12:53.438112",
        "meta_mean_motion": 14.92937795,
        "meta_eccentricity": 0.001285,
        "meta_inclination": 97.7388,
        "meta_ra_of_asc_node": 271.519,
        "meta_arg_of_pericenter": 290.1663,
        "meta_mean_anomaly": 69.8174,
        "meta_ephemeris_type": 0,
        "meta_classification_type": "U",
        "meta_norad_cat_id": 66660,
        "meta_element_set_no": 999,
        "meta_rev_at_epoch": 203,
        "meta_bstar": 0.00046639,
        "meta_mean_motion_dot": 4.792e-05,
        "meta_mean_motion_ddot": 0,
        "tle_line1": "1 66660U 25274L   25344.25895183  .00004792  00000+0  46639-3 0  9995",
        "tle_line2": "2 66660  97.7388 271.5190 0012850 290.1663  69.8174 14.92937795  2032"
      },
      "geometry": {
        "type": "Point",
        "coordinates": [
          82.84210814373654,
          -49.95688942515664
        ]
      }
    },
    {
      "type": "Feature",
      "properties": {
        "norad_id": 66661,
        "name": "SNUGLITE-III",
        "group": "last-30-days",
        "lat": -57.41744062732327,
        "lon": 79.87241727463345,
        "alt_km": 589.5022711817173,
        "timestamp": "2025-12-10T21:43:20.863431+00:00",
        "meta_object_name": "SNUGLITE-III",
        "meta_object_id": "2025-274M",
        "meta_epoch": "2025-12-10T12:36:56.223936",
        "meta_mean_motion": 14.93078809,
        "meta_eccentricity": 0.00135067,
        "meta_inclination": 97.7386,
        "meta_ra_of_asc_node": 271.7842,
        "meta_arg_of_pericenter": 290.3559,
        "meta_mean_anomaly": 69.6209,
        "meta_ephemeris_type": 0,
        "meta_classification_type": "U",
        "meta_norad_cat_id": 66661,
        "meta_element_set_no": 999,
        "meta_rev_at_epoch": 207,
        "meta_bstar": 0.00034929425,
        "meta_mean_motion_dot": 3.587e-05,
        "meta_mean_motion_ddot": 0,
        "tle_line1": "1 66661U 25274M   25344.52565074  .00003587  00000+0  34929-3 0  9999",
        "tle_line2": "2 66661  97.7386 271.7842 0013506 290.3559  69.6209 14.93078809  2076"
      },
      "geometry": {
        "type": "Point",
        "coordinates": [
          79.87241727463345,
          -57.41744062732327
        ]
      }
    },
    {
      "type": "Feature",
      "properties": {
        "norad_id": 66662,
        "name": "2025-274N",
        "group": "last-30-days",
        "lat": -60.33629816255195,
        "lon": 78.34581921206106,
        "alt_km": 588.7592610383117,
        "timestamp": "2025-12-10T21:43:20.863441+00:00",
        "meta_object_name": "2025-274N",
        "meta_object_id": "2025-274N",
        "meta_epoch": "2025-12-10T12:36:08.551872",
        "meta_mean_motion": 14.93128765,
        "meta_eccentricity": 0.00139537,
        "meta_inclination": 97.7385,
        "meta_ra_of_asc_node": 271.785,
        "meta_arg_of_pericenter": 289.9149,
        "meta_mean_anomaly": 70.0567,
        "meta_ephemeris_type": 0,
        "meta_classification_type": "U",
        "meta_norad_cat_id": 66662,
        "meta_element_set_no": 999,
        "meta_rev_at_epoch": 207,
        "meta_bstar": 0.00037994085,
        "meta_mean_motion_dot": 3.913e-05,
        "meta_mean_motion_ddot": 0,
        "tle_line1": "1 66662U 25274N   25344.52509898  .00003913  00000+0  37994-3 0  9990",
        "tle_line2": "2 66662  97.7385 271.7850 0013953 289.9149  70.0567 14.93128765  2070"
      },
      "geometry": {
        "type": "Point",
        "coordinates": [
          78.34581921206106,
          -60.33629816255195
        ]
      }
    },
    {
      "type": "Feature",
      "properties": {
        "norad_id": 66663,
        "name": "KSLV-II R/B",
        "group": "last-30-days",
        "lat": 79.57905003847016,
        "lon": 139.96122121222803,
        "alt_km": 591.3000894588777,
        "timestamp": "2025-12-10T21:43:20.863452+00:00",
        "meta_object_name": "KSLV-II R/B",
        "meta_object_id": "2025-274P",
        "meta_epoch": "2025-12-10T14:52:32.871360",
        "meta_mean_motion": 14.97259272,
        "meta_eccentricity": 0.00513915,
        "meta_inclination": 97.7407,
        "meta_ra_of_asc_node": 271.9813,
        "meta_arg_of_pericenter": 327.0111,
        "meta_mean_anomaly": 32.7908,
        "meta_ephemeris_type": 0,
        "meta_classification_type": "U",
        "meta_norad_cat_id": 66663,
        "meta_element_set_no": 999,
        "meta_rev_at_epoch": 209,
        "meta_bstar": 0.00042304875,
        "meta_mean_motion_dot": 4.973e-05,
        "meta_mean_motion_ddot": 0,
        "tle_line1": "1 66663U 25274P   25344.61982490  .00004973  00000+0  42305-3 0  9993",
        "tle_line2": "2 66663  97.7407 271.9813 0051391 327.0111  32.7908 14.97259272  2096"
      },
      "geometry": {
        "type": "Point",
        "coordinates": [
          139.96122121222803,
          79.57905003847016
        ]
      }
    },
    {
      "type": "Feature",
      "properties": {
        "norad_id": 66664,
        "name": "SOYUZ-MS 28",
        "group": "last-30-days",
        "lat": -35.7119905583169,
        "lon": 6.282097146479397,
        "alt_km": 419.94296338004006,
        "timestamp": "2025-12-10T21:43:20.863462+00:00",
        "meta_object_name": "SOYUZ-MS 28",
        "meta_object_id": "2025-275A",
        "meta_epoch": "2025-12-10T13:00:09.919872",
        "meta_mean_motion": 15.49478601,
        "meta_eccentricity": 0.00033601,
        "meta_inclination": 51.6308,
        "meta_ra_of_asc_node": 153.362,
        "meta_arg_of_pericenter": 230.7092,
        "meta_mean_anomaly": 129.3599,
        "meta_ephemeris_type": 0,
        "meta_classification_type": "U",
        "meta_norad_cat_id": 66664,
        "meta_element_set_no": 999,
        "meta_rev_at_epoch": 128,
        "meta_bstar": 0.0002844348,
        "meta_mean_motion_dot": 0.00015517,
        "meta_mean_motion_ddot": 0,
        "tle_line1": "1 66664U 25275A   25344.54178148  .00015517  00000+0  28443-3 0  9997",
        "tle_line2": "2 66664  51.6308 153.3620 0003360 230.7092 129.3599 15.49478601  1282"
      },
      "geometry": {
        "type": "Point",
        "coordinates": [
          6.282097146479397,
          -35.7119905583169
        ]
      }
    }
  ]
}